satname,norad_id,inclination_deg,eccentricity,mean_motion_rev_per_day,perigee_km,apogee_km,l1,l2
STARLINK-1452,45669,53.0345,0.000719,15.41196062,437.6740797898301,447.4822682100421,1 45669U 20035N   26044.51988513  .00042657  00000+0  10155-2 0  9993,2 45669  53.0345 136.5309 0007190 314.5280  45.5136 15.41196062315636
STARLINK-1453,45670,53.0506,0.0006661,15.47652219,419.06554829748166,428.12681724356753,1 45670U 20035P   26044.52487900  .00102296  00000+0  19305-2 0  9992,2 45670  53.0506 129.2690 0006661 305.5858  54.4528 15.47652219315622
STARLINK-1454,45671,53.0517,0.0005982,15.46365893,423.2965675002861,431.43867322809,1 45671U 20035Q   26044.48276725  .00117143  00000+0  23058-2 0  9996,2 45671  53.0517 168.7417 0005982 324.5465  35.5143 15.46365893315160
STARLINK-1456,45673,53.0499,0.0004364,15.44782168,429.0462518422055,434.9901553038835,1 45673U 20035S   26044.47701367  .00049704  00000+0  10472-2 0  9995,2 45673  53.0499 162.2100 0004364 240.1476 119.9096 15.44782168315279
STARLINK-1457,45674,53.0477,0.0008255,15.71909795,347.8822054209586,358.99603759756974,1 45674U 20035T   26044.58334490  .00192596  00000+0  14188-2 0  9993,2 45674  53.0477 142.5779 0008255 341.2367 150.6636 15.71909795  5987
STARLINK-1458,45675,53.0527,0.0002829,15.39684625,445.1103209810135,448.9720067861381,1 45675U 20035U   26044.49346223  .00054651  00000+0  13634-2 0  9995,2 45675  53.0527 170.1046 0002829   1.4143 358.6868 15.39684625315129
STARLINK-1460,45676,53.0562,0.0001178,15.06411528,546.3604246058485,547.9920284020127,1 45676U 20035V   26044.35194373 -.00002788  00000+0 -16826-3 0  9991,2 45676  53.0562 175.8749 0001178  91.5418 268.5706 15.06411528315025
STARLINK-1392,45677,53.0567,0.0001437,15.06399518,546.2178623991931,548.2082079993088,1 45677U 20035W   26044.49569589  .00000499  00000+0  52407-4 0  9993,2 45677  53.0567 175.2316 0001437  81.9887 278.1265 15.06399518315083
STARLINK-1394,45679,53.0517,0.0003493,15.43323471,433.9283938183262,438.6889655701616,1 45679U 20035Y   26044.52006213  .00100653  00000+0  22041-2 0  9991,2 45679  53.0517 152.0325 0003493 219.7780 140.2970 15.43323471315415
STARLINK-1402,45685,53.0494,0.0003366,15.41248406,440.12794193511945,444.7195434270925,1 45685U 20035AE  26044.49337122  .00086823  00000+0  20428-2 0  9999,2 45685  53.0494 138.2696 0003366 198.8349 161.2531 15.41248406315610
STARLINK-1404,45686,53.1564,0.0001915,15.29975886,474.5717700270943,477.19686019078017,1 45686U 20035AF  26044.52942478  .00120599  00000+0  40462-2 0  9999,2 45686  53.1564 161.9202 0001915  45.1820 314.9336 15.29975886315279
STARLINK-1413,45689,53.1593,0.0001118,15.30209965,474.41911445207825,475.9515173219106,1 45689U 20035AJ  26044.47038666  .00003642  00000+0  13498-3 0  9990,2 45689  53.1593 162.0701 0001118  90.9275 269.1854 15.30209965315183
STARLINK-1417,45693,53.0512,0.0004904,15.1114173,529.3277701523584,536.1059356112646,1 45693U 20035AN  26044.46785572  .00032126  00000+0  19028-2 0  9992,2 45693  53.0512 163.9644 0004904 164.4051 195.7092 15.11141730315237
STARLINK-1420,45695,53.0549,0.0002587,15.4786688,421.2078713781939,424.72676275184403,1 45695U 20035AQ  26044.50248489  .00024585  00000+0  47174-3 0  9994,2 45695  53.0549 138.5158 0002587  28.0179 332.0966 15.47866880315604
STARLINK-1422,45696,53.1602,0.0001161,15.30197582,474.4266141275157,476.0179641544546,1 45696U 20035AR  26044.47777390  .00003311  00000+0  12387-3 0  9991,2 45696  53.1602 162.0425 0001161  84.6003 275.5130 15.30197582315260
STARLINK-1351,45697,53.054,0.0001355,15.49235609,418.0399302425949,419.88194378352546,1 45697U 20035AS  26044.47924905  .00025380  00000+0  46405-3 0  9996,2 45697  53.0540 137.8383 0001355  66.5029 293.6121 15.49235609315619
STARLINK-1398,45699,53.0407,0.0005275,15.81324882,323.15621383054895,330.2298094928519,1 45699U 20035AU  26044.58334490  .00236109  00000+0  11425-2 0  9990,2 45699  53.0407  61.6044 0005275  17.7176 252.3784 15.81324882  5911
STARLINK-1400,45700,53.0524,0.0004846,15.4618805,424.5912573555879,431.1876581984652,1 45700U 20035AV  26044.47971628  .00086008  00000+0  17128-2 0  9998,2 45700  53.0524 138.8042 0004846   3.6123 356.4917 15.46188050315596
STARLINK-1403,45701,53.0562,0.0001467,15.06394258,546.2132051820345,548.2451076123216,1 45701U 20035AW  26044.52426586 -.00000012  00000+0  18105-4 0  9993,2 45701  53.0562 145.1047 0001467 102.4273 257.6881 15.06394258315503
STARLINK-1407,45703,53.0364,0.0013029,15.55849418,390.8537757475433,408.51542327154584,1 45703U 20035AY  26044.50455100  .00035445  00000+0  50625-3 0  9996,2 45703  53.0364  73.1378 0013029  16.0952 344.0469 15.55849418316526
STARLINK-1411,45706,53.0459,0.0004638,15.57535415,391.6512058154258,397.93377521082493,1 45706U 20035BB  26044.47040202  .00075590  00000+0  10048-2 0  9997,2 45706  53.0459  99.3510 0004638  28.6974 331.4292 15.57535415316144
STARLINK-1423,45710,53.0526,0.0004004,15.48178351,419.3323006158789,424.7778944475813,1 45710U 20035BF  26044.48087428  .00093616  00000+0  17381-2 0  9990,2 45710  53.0526 138.2269 0004004  15.7891 344.3240 15.48178351315596
STARLINK-1433,45711,53.0523,0.0004471,15.50222519,413.0381378331422,419.11352294607696,1 45711U 20035BG  26044.47360374  .00088862  00000+0  15368-2 0  9994,2 45711  53.0523 137.6650 0004471  10.2376 349.8722 15.50222519315603
STARLINK-1434,45712,53.0508,0.0002652,15.24302955,491.05712984894944,494.7015169068691,1 45712U 20035BH  26044.52313243  .00023113  00000+0  94413-3 0  9991,2 45712  53.0508 131.7483 0002652 356.5351   3.5627 15.24302955315707
STARLINK-1465,45731,53.0542,0.0004098,15.46184456,425.1108905704341,430.689118499351,1 45731U 20038B   26044.23910343  .00073930  00000+0  14761-2 0  9996,2 45731  53.0542 340.1132 0004098 117.1629 242.9795 15.46184456312595
STARLINK-1471,45735,53.0465,0.0004122,15.47453837,421.37357314616565,426.9814012093939,1 45735U 20038F   26043.98545147  .00022086  00000+0  43081-3 0  9991,2 45735  53.0465 260.2431 0004122 136.3157 223.8176 15.47453837313702
STARLINK-1474,45738,53.02,0.0007882,16.07241485,249.19366232656103,259.64922745909007,1 45738U 20038J   26044.67219616  .00626995  20797-3  77392-3 0  9990,2 45738  53.0200 185.6471 0007882 312.3883  47.6481 16.07241485314796
STARLINK-1480,45741,53.0534,0.0010808,15.44469033,425.5772499550494,440.30007110284896,1 45741U 20038M   26044.23294346  .00068397  00000+0  14472-2 0  9995,2 45741  53.0534 333.9311 0010808  94.5086 265.7154 15.44469033312695
STARLINK-1500,45744,53.0389,0.0004075,15.33413065,462.84935382812546,468.4270306097833,1 45744U 20038Q   26044.11593852  .00022881  00000+0  70776-3 0  9997,2 45744  53.0389 307.8926 0004075 139.0058 221.1250 15.33413065313046
STARLINK-1504,45746,53.0227,0.0004068,15.51444232,409.74610978425517,415.27097899917226,1 45746U 20038S   26044.02711864  .00027917  00000+0  47120-3 0  9996,2 45746  53.0227 261.0058 0004068 123.9419 236.1976 15.51444232313682
STARLINK-1506,45747,53.0766,0.0004733,15.25453821,486.17261829245945,492.67345062107506,1 45747U 20038T   26044.16120866  .00009749  00000+0  39319-3 0  9992,2 45747  53.0766 315.7440 0004733 149.9225 210.2045 15.25453821312948
STARLINK-1464,45751,53.0546,0.0004555,15.41499597,438.57634366266575,444.78919947456507,1 45751U 20038X   26044.20744153  .00070142  00000+0  16418-2 0  9992,2 45751  53.0546 320.7998 0004555 124.2206 235.9231 15.41499597312871
STARLINK-1477,45754,53.0527,0.0001903,15.12923854,525.9746659017001,528.6028709491629,1 45754U 20038AA  26044.00316067  .00015025  00000+0  85812-3 0  9996,2 45754  53.0527 325.0299 0001903  71.2704 288.8494 15.12923854312798
STARLINK-1478,45755,53.056,0.0008192,15.50376607,410.06019951189046,421.1911002374454,1 45755U 20038AB  26044.17111129  .00044737  00000+0  77708-3 0  9994,2 45755  53.0560 315.9785 0008192 116.0806 244.1046 15.50376607312925
STARLINK-1484,45756,53.0028,0.0003726,15.8762892,306.4409517004651,311.424155931968,1 45756U 20038AC  26044.58334490  .00196613  00000+0  70803-3 0  9998,2 45756  53.0028 180.2028 0003726 311.4987 117.9482 15.87628920  5981
STARLINK-1493,45759,53.0547,0.0002723,15.43698216,433.3505212923874,437.06106777829064,1 45759U 20038AF  26044.53634964  .00073325  00000+0  15937-2 0  9995,2 45759  53.0547 319.7646 0002723 119.9635 240.1641 15.43698216312908
STARLINK-1494,45760,53.0494,0.0001804,15.69050084,360.3999878333525,362.831690657752,1 45760U 20038AG  26044.00787671  .00067545  00000+0  57315-3 0  9997,2 45760  53.0494 273.8755 0001804 184.1766 175.9236 15.69050084313516
STARLINK-1502,45764,53.0549,0.0001618,15.41039875,441.93536062028215,444.1426931825881,1 45764U 20038AL  26044.58334490  .00717476  00000+0  15799-1 0  9994,2 45764  53.0549 320.8587 0001618  87.9716  44.6321 15.41039875  5830
STARLINK-1470,45772,53.0516,0.0002533,15.25540194,487.42432647597343,490.9033010682306,1 45772U 20038AU  26043.93005918  .00012927  00000+0  51548-3 0  9994,2 45772  53.0516 289.0235 0002533 113.9403 246.1860 15.25540194313291
STARLINK-1482,45773,53.1578,0.0001294,15.29352814,476.8586305076733,478.63293297158725,1 45773U 20038AV  26043.98847541  .00000424  00000+0  27032-4 0  9997,2 45773  53.1578 305.7153 0001294  87.0407 273.0741 15.29352814313060
STARLINK-1496,45780,53.056,0.0008816,15.43787778,428.93586640335616,440.9486877847294,1 45780U 20038BC  26044.00879892  .00036990  00000+0  80894-3 0  9994,2 45780  53.0560 295.4981 0008816 111.0371 249.1578 15.43787778313190
STARLINK-1513,45786,53.1571,0.0001422,15.29377145,476.69817144701756,478.6479638302544,1 45786U 20038BJ  26043.99802889  .00005080  00000+0  18812-3 0  9996,2 45786  53.1571 305.8016 0001422 105.5844 254.5313 15.29377145313063
STARLINK-1522,46027,53.0542,0.0001459,15.06404693,546.1867683504597,548.2075808626096,1 46027U 20055A   26043.94833257  .00003106  00000+0  22729-3 0  9991,2 46027  53.0542 237.6849 0001459  97.3885 262.7270 15.06404693305156
